[{"OBJECT_NAME":"STARLINK-1911","OBJECT_ID":"2020-074L","EPOCH":"2026-03-10T00:00:02.999808","MEAN_MOTION":15.7196626,"ECCENTRICITY":0.00010753,"INCLINATION":53.0465,"RA_OF_ASC_NODE":276.9224,"ARG_OF_PERICENTER":50.1756,"MEAN_ANOMALY":209.8955,"EPHEMERIS_TYPE":0,"CLASSIFICATION_TYPE":"U","NORAD_CAT_ID":46749,"ELEMENT_SET_NO":999,"REV_AT_EPOCH":580,"BSTAR":0.00055147557,"MEAN_MOTION_DOT":0.00073486,"MEAN_MOTION_DDOT":0},{"OBJECT_NAME":"STARLINK-11378 [DTC]","OBJECT_ID":"2024-213N","EPOCH":"2026-03-09T04:54:47.814048","MEAN_MOTION":15.69740219,"ECCENTRICITY":0.0001391,"INCLINATION":53.1574,"RA_OF_ASC_NODE":43.3096,"ARG_OF_PERICENTER":52.3881,"MEAN_ANOMALY":307.7263,"EPHEMERIS_TYPE":0,"CLASSIFICATION_TYPE":"U","NORAD_CAT_ID":62020,"ELEMENT_SET_NO":999,"REV_AT_EPOCH":7484,"BSTAR":0.0012774727,"MEAN_MOTION_DOT":0.00157341,"MEAN_MOTION_DDOT":0}]
